[{"OBJECT_NAME":"STARLINK-31689","OBJECT_ID":"2024-076D","EPOCH":"2026-03-09T04:24:01.682784","MEAN_MOTION":15.275769,"ECCENTRICITY":6.023e-5,"INCLINATION":42.9995,"RA_OF_ASC_NODE":8.5445,"ARG_OF_PERICENTER":278.6438,"MEAN_ANOMALY":81.4346,"EPHEMERIS_TYPE":0,"CLASSIFICATION_TYPE":"U","NORAD_CAT_ID":59567,"ELEMENT_SET_NO":999,"REV_AT_EPOCH":10646,"BSTAR":-6.5234855e-5,"MEAN_MOTION_DOT":-2.056e-5,"MEAN_MOTION_DDOT":0},{"OBJECT_NAME":"239ALFEROV (RS61S)","OBJECT_ID":"2025-155F","EPOCH":"2026-03-09T21:46:33.382848","MEAN_MOTION":15.29933217,"ECCENTRICITY":0.00084878,"INCLINATION":97.4469,"RA_OF_ASC_NODE":37.6373,"ARG_OF_PERICENTER":151.5904,"MEAN_ANOMALY":208.58,"EPHEMERIS_TYPE":0,"CLASSIFICATION_TYPE":"U","NORAD_CAT_ID":64881,"ELEMENT_SET_NO":999,"REV_AT_EPOCH":6561,"BSTAR":0.00067233359,"MEAN_MOTION_DOT":0.00019457,"MEAN_MOTION_DDOT":0}]
